start=new Date('2022-01-11T00:00:00.000Z').valueOf();
sats=[{"NORAD_CAT_ID":"44718","MEAN_ELEMENT_THEORY":"SGP4","TIME_SYSTEM":"UTC","EPHEMERIS_TYPE":"0","SEMIMAJOR_AXIS":"6925.337","DECAY_DATE":null,"REV_AT_EPOCH":"11980","ECCENTRICITY":"0.00022360","EPOCH":"2022-01-10T17:40:56.089056","ELEMENT_SET_NO":"999","COUNTRY_CODE":"US","APOAPSIS":"548.750","LAUNCH_DATE":"2019-11-11","CLASSIFICATION_TYPE":"U","CENTER_NAME":"EARTH","MEAN_MOTION":"15.06403827","RA_OF_ASC_NODE":"165.4641","ARG_OF_PERICENTER":"90.1305","FILE":"3269118","MEAN_MOTION_DDOT":"0.0000000000000","OBJECT_TYPE":"PAYLOAD","REF_FRAME":"TEME","OBJECT_NAME":"STARLINK-1012","BSTAR":"0.00011511000000","TLE_LINE1":"1 44718U 19074F   22010.73676029  .00001433  00000-0  11511-3 0  9993","RCS_SIZE":"LARGE","MEAN_ANOMALY":"269.9940","TLE_LINE2":"2 44718  53.0544 165.4641 0002236  90.1305 269.9940 15.06403827119809","PERIOD":"95.592","SITE":"AFETR","GP_ID":"193622819","OBJECT_ID":"2019-074F","MEAN_MOTION_DOT":"0.00001433","INCLINATION":"53.0544","PERIAPSIS":"545.653"},{"INCLINATION":"53.0549","MEAN_MOTION_DOT":"0.00001065","PERIAPSIS":"545.957","OBJECT_ID":"2019-074G","GP_ID":"193622569","SITE":"AFETR","MEAN_ANOMALY":"273.7359","PERIOD":"95.593","TLE_LINE2":"2 44719  53.0549 165.4259 0001843  86.3841 273.7359 15.06393663120934","RCS_SIZE":"LARGE","OBJECT_NAME":"STARLINK-1013","TLE_LINE1":"1 44719U 19074G   22010.74411713  .00001065  00000-0  90379-4 0  9993","BSTAR":"0.00009037900000","OBJECT_TYPE":"PAYLOAD","REF_FRAME":"TEME","FILE":"3269118","MEAN_MOTION_DDOT":"0.0000000000000","ARG_OF_PERICENTER":"86.3841","CENTER_NAME":"EARTH","MEAN_MOTION":"15.06393663","RA_OF_ASC_NODE":"165.4259","CLASSIFICATION_TYPE":"U","ELEMENT_SET_NO":"999","APOAPSIS":"548.509","COUNTRY_CODE":"US","LAUNCH_DATE":"2019-11-11","EPOCH":"2022-01-10T17:51:31.720032","TIME_SYSTEM":"UTC","EPHEMERIS_TYPE":"0","DECAY_DATE":null,"SEMIMAJOR_AXIS":"6925.368","REV_AT_EPOCH":"12093","ECCENTRICITY":"0.00018430","MEAN_ELEMENT_THEORY":"SGP4","NORAD_CAT_ID":"44719"},{"RA_OF_ASC_NODE":"165.6422","MEAN_MOTION":"15.06394677","CENTER_NAME":"EARTH","ARG_OF_PERICENTER":"90.2710","CLASSIFICATION_TYPE":"U","EPOCH":"2022-01-10T16:42:31.221216","LAUNCH_DATE":"2019-11-11","COUNTRY_CODE":"US","APOAPSIS":"548.614","ELEMENT_SET_NO":"999","MEAN_ELEMENT_THEORY":"SGP4","NORAD_CAT_ID":"44720","DECAY_DATE":null,"ECCENTRICITY":"0.00019980","SEMIMAJOR_AXIS":"6925.365","REV_AT_EPOCH":"11980","EPHEMERIS_TYPE":"0","TIME_SYSTEM":"UTC","OBJECT_ID":"2019-074H","PERIAPSIS":"545.846","INCLINATION":"53.0533","MEAN_MOTION_DOT":"-0.00000019","TLE_LINE2":"2 44720  53.0533 165.6422 0001998  90.2710 269.8508 15.06394677119805","PERIOD":"95.592","MEAN_ANOMALY":"269.8508","GP_ID":"193623820","SITE":"AFETR","TLE_LINE1":"1 44720U 19074H   22010.69619469 -.00000019  00000-0  17650-4 0  9997","BSTAR":"0.00001765000000","OBJECT_NAME":"STARLINK-1014","RCS_SIZE":"LARGE","MEAN_MOTION_DDOT":"0.0000000000000","FILE":"3269118","REF_FRAME":"TEME","OBJECT_TYPE":"PAYLOAD"},{"EPOCH":"2022-01-10T16:26:36.577248","LAUNCH_DATE":"2019-11-11","COUNTRY_CODE":"US","APOAPSIS":"548.662","ELEMENT_SET_NO":"999","NORAD_CAT_ID":"44721","MEAN_ELEMENT_THEORY":"SGP4","ECCENTRICITY":"0.00020620","DECAY_DATE":null,"SEMIMAJOR_AXIS":"6925.369","REV_AT_EPOCH":"11979","EPHEMERIS_TYPE":"0","TIME_SYSTEM":"UTC","RA_OF_ASC_NODE":"165.6813","MEAN_MOTION":"15.06393488","CENTER_NAME":"EARTH","ARG_OF_PERICENTER":"88.7219","CLASSIFICATION_TYPE":"U","TLE_LINE1":"1 44721U 19074J   22010.68514557  .00001049  00000-0  89333-4 0  9999","BSTAR":"0.00008933300000","OBJECT_NAME":"STARLINK-1015","RCS_SIZE":"LARGE","MEAN_MOTION_DDOT":"0.0000000000000","FILE":"3269118","REF_FRAME":"TEME","OBJECT_TYPE":"PAYLOAD","OBJECT_ID":"2019-074J","PERIAPSIS":"545.806","INCLINATION":"53.0553","MEAN_MOTION_DOT":"0.00001049","PERIOD":"95.593","TLE_LINE2":"2 44721  53.0553 165.6813 0002062  88.7219 271.4006 15.06393488119790","MEAN_ANOMALY":"271.4006","GP_ID":"193624070","SITE":"AFETR"},{"EPOCH":"2022-01-10T16:31:54.086880","LAUNCH_DATE":"2019-11-11","APOAPSIS":"549.068","COUNTRY_CODE":"US","ELEMENT_SET_NO":"999","MEAN_ELEMENT_THEORY":"SGP4","NORAD_CAT_ID":"44722","DECAY_DATE":null,"SEMIMAJOR_AXIS":"6925.310","REV_AT_EPOCH":"11980","ECCENTRICITY":"0.00027340","EPHEMERIS_TYPE":"0","TIME_SYSTEM":"UTC","RA_OF_ASC_NODE":"165.6763","MEAN_MOTION":"15.06412638","CENTER_NAME":"EARTH","ARG_OF_PERICENTER":"92.6317","CLASSIFICATION_TYPE":"U","TLE_LINE1":"1 44722U 19074K   22010.68882045  .00001351  00000-0  10957-3 0  9991","BSTAR":"0.00010957000000","OBJECT_NAME":"STARLINK-1016","RCS_SIZE":"LARGE","MEAN_MOTION_DDOT":"0.0000000000000","FILE":"3269118","REF_FRAME":"TEME","OBJECT_TYPE":"PAYLOAD","OBJECT_ID":"2019-074K","PERIAPSIS":"545.281","MEAN_MOTION_DOT":"0.00001351","INCLINATION":"53.0540","TLE_LINE2":"2 44722  53.0540 165.6763 0002734  92.6317 267.4985 15.06412638119802","PERIOD":"95.591","MEAN_ANOMALY":"267.4985","GP_ID":"193622320","SITE":"AFETR"},{"EPOCH":"2022-01-10T16:53:07.716192","LAUNCH_DATE":"2019-11-11","APOAPSIS":"548.660","COUNTRY_CODE":"US","ELEMENT_SET_NO":"999","NORAD_CAT_ID":"44723","MEAN_ELEMENT_THEORY":"SGP4","DECAY_DATE":null,"SEMIMAJOR_AXIS":"6925.347","ECCENTRICITY":"0.00020910","REV_AT_EPOCH":"11980","EPHEMERIS_TYPE":"0","TIME_SYSTEM":"UTC","RA_OF_ASC_NODE":"165.6240","MEAN_MOTION":"15.06400599","CENTER_NAME":"EARTH","ARG_OF_PERICENTER":"91.8090","CLASSIFICATION_TYPE":"U","BSTAR":"-0.00002268900000","TLE_LINE1":"1 44723U 19074L   22010.70356153 -.00000620  00000-0 -22689-4 0  9997","OBJECT_NAME":"STARLINK-1017","RCS_SIZE":"LARGE","MEAN_MOTION_DDOT":"0.0000000000000","FILE":"3269118","REF_FRAME":"TEME","OBJECT_TYPE":"PAYLOAD","OBJECT_ID":"2019-074L","PERIAPSIS":"545.764","MEAN_MOTION_DOT":"-0.00000620","INCLINATION":"53.0551","PERIOD":"95.592","TLE_LINE2":"2 44723  53.0551 165.6240 0002091  91.8090 268.3138 15.06400599119803","MEAN_ANOMALY":"268.3138","SITE":"AFETR","GP_ID":"193623069"},{"CLASSIFICATION_TYPE":"U","MEAN_MOTION":"15.06397908","CENTER_NAME":"EARTH","RA_OF_ASC_NODE":"165.4827","ARG_OF_PERICENTER":"87.9697","MEAN_ELEMENT_THEORY":"SGP4","NORAD_CAT_ID":"44724","TIME_SYSTEM":"UTC","REV_AT_EPOCH":"11980","DECAY_DATE":null,"SEMIMAJOR_AXIS":"6925.355","ECCENTRICITY":"0.00018510","EPHEMERIS_TYPE":"0","EPOCH":"2022-01-10T17:35:35.909664","APOAPSIS":"548.502","COUNTRY_CODE":"US","ELEMENT_SET_NO":"999","LAUNCH_DATE":"2019-11-11","PERIOD":"95.592","TLE_LINE2":"2 44724  53.0541 165.4827 0001851  87.9697 272.1504 15.06397908119803","MEAN_ANOMALY":"272.1504","SITE":"AFETR","GP_ID":"193623321","OBJECT_ID":"2019-074M","INCLINATION":"53.0541","MEAN_MOTION_DOT":"-0.00000329","PERIAPSIS":"545.938","FILE":"3269118","MEAN_MOTION_DDOT":"0.0000000000000","OBJECT_TYPE":"PAYLOAD","REF_FRAME":"TEME","OBJECT_NAME":"STARLINK-1019","TLE_LINE1":"1 44724U 19074M   22010.73305451 -.00000329  00000-0 -31770-5 0  9994","BSTAR":"-0.00000317700000","RCS_SIZE":"LARGE"},{"TLE_LINE1":"1 44725U 19074N   22010.73859987  .00000570  00000-0  57177-4 0  9997","BSTAR":"0.00005717700000","OBJECT_NAME":"STARLINK-1020","RCS_SIZE":"LARGE","MEAN_MOTION_DDOT":"0.0000000000000","FILE":"3269118","REF_FRAME":"TEME","OBJECT_TYPE":"PAYLOAD","OBJECT_ID":"2019-074N","PERIAPSIS":"545.865","MEAN_MOTION_DOT":"0.00000570","INCLINATION":"53.0532","MEAN_ANOMALY":"279.7370","TLE_LINE2":"2 44725  53.0532 185.4473 0001959  80.3840 279.7370 15.06397271119525","PERIOD":"95.592","GP_ID":"193623571","SITE":"AFETR","EPOCH":"2022-01-10T17:43:35.028768","LAUNCH_DATE":"2019-11-11","ELEMENT_SET_NO":"999","COUNTRY_CODE":"US","APOAPSIS":"548.579","NORAD_CAT_ID":"44725","MEAN_ELEMENT_THEORY":"SGP4","EPHEMERIS_TYPE":"0","DECAY_DATE":null,"SEMIMAJOR_AXIS":"6925.357","REV_AT_EPOCH":"11952","ECCENTRICITY":"0.00019590","TIME_SYSTEM":"UTC","RA_OF_ASC_NODE":"185.4473","CENTER_NAME":"EARTH","MEAN_MOTION":"15.06397271","ARG_OF_PERICENTER":"80.3840","CLASSIFICATION_TYPE":"U"},{"MEAN_MOTION":"15.06401077","CENTER_NAME":"EARTH","RA_OF_ASC_NODE":"165.5079","ARG_OF_PERICENTER":"95.2142","CLASSIFICATION_TYPE":"U","EPOCH":"2022-01-10T17:30:17.221536","APOAPSIS":"548.386","COUNTRY_CODE":"US","ELEMENT_SET_NO":"999","LAUNCH_DATE":"2019-11-11","NORAD_CAT_ID":"44726","MEAN_ELEMENT_THEORY":"SGP4","TIME_SYSTEM":"UTC","DECAY_DATE":null,"SEMIMAJOR_AXIS":"6925.345","REV_AT_EPOCH":"11980","ECCENTRICITY":"0.00016980","EPHEMERIS_TYPE":"0","OBJECT_ID":"2019-074P","MEAN_MOTION_DOT":"-0.00000941","INCLINATION":"53.0541","PERIAPSIS":"546.034","PERIOD":"95.592","TLE_LINE2":"2 44726  53.0541 165.5079 0001698  95.2142 264.9041 15.06401077119809","MEAN_ANOMALY":"264.9041","GP_ID":"193622820","SITE":"AFETR","OBJECT_NAME":"STARLINK-1021","BSTAR":"-0.00004427800000","TLE_LINE1":"1 44726U 19074P   22010.72936599 -.00000941  00000-0 -44278-4 0  9994","RCS_SIZE":"LARGE","FILE":"3269118","MEAN_MOTION_DDOT":"0.0000000000000","OBJECT_TYPE":"PAYLOAD","REF_FRAME":"TEME"},{"TLE_LINE1":"1 44727U 19074Q   22010.83165309  .00000448  00000-0  49012-4 0  9991","BSTAR":"0.00004901200000","OBJECT_NAME":"STARLINK-1022","RCS_SIZE":"LARGE","MEAN_MOTION_DDOT":"0.0000000000000","FILE":"3269118","REF_FRAME":"TEME","OBJECT_TYPE":"PAYLOAD","OBJECT_ID":"2019-074Q","PERIAPSIS":"545.676","MEAN_MOTION_DOT":"0.00000448","INCLINATION":"53.0593","MEAN_ANOMALY":"287.5566","TLE_LINE2":"2 44727  53.0593 205.0272 0002241  72.5668 287.5566 15.06395222119276","PERIOD":"95.592","GP_ID":"193622570","SITE":"AFETR","EPOCH":"2022-01-10T19:57:34.826976","LAUNCH_DATE":"2019-11-11","ELEMENT_SET_NO":"999","COUNTRY_CODE":"US","APOAPSIS":"548.780","MEAN_ELEMENT_THEORY":"SGP4","NORAD_CAT_ID":"44727","EPHEMERIS_TYPE":"0","DECAY_DATE":null,"REV_AT_EPOCH":"11927","SEMIMAJOR_AXIS":"6925.363","ECCENTRICITY":"0.00022410","TIME_SYSTEM":"UTC","RA_OF_ASC_NODE":"205.0272","CENTER_NAME":"EARTH","MEAN_MOTION":"15.06395222","ARG_OF_PERICENTER":"72.5668","CLASSIFICATION_TYPE":"U"}];
